ORBVIEW 2 (SEASTAR)     
1 24883U 97037A   13109.80874044  .00000139  00000-0  67093-4 0   117
2 24883  98.4449 226.0446 0001049 280.3327 238.3134 14.32615433834290
METEOSAT-7              
1 24932U 97049B   13107.90304581  .00000057  00000-0  00000+0 0  5998
2 24932   8.3118  52.8551 0001147  24.5329 151.4189  1.00268897 57234
NOAA 15                 
1 25338U 98030A   13109.60711860  .00000118  00000-0  69124-4 0  6986
2 25338  98.7216 100.1414 0009465 300.4053 171.1133 14.25201517776494
NOAA 16                 
1 26536U 00055A   13109.49761575  .00000199  00000-0  13138-3 0  1743
2 26536  99.0483 161.6652 0009501 302.4054 162.6001 14.12860409648286
GOES 12                 
1 26871U 01031A   13109.32592360 -.00000290  00000-0  00000+0 0   175
2 26871   2.9284  69.9293 0003431   6.2604 188.6518  1.00280399 43060
FENGYUN 1D              
1 27431U 02024B   13109.94688742  .00000078  00000-0  69409-4 0  1558
2 27431  98.8105  75.2374 0016175  45.1693 315.0804 14.09393729562399
NOAA 17                 
1 27453U 02032A   13109.57827361  .00000049  00000-0  38799-4 0   973
2 27453  98.3146 126.7616 0010986 343.7663 162.3088 14.24581225562374
METEOSAT-8 (MSG-1)      
1 27509U 02040B   13110.02762152  .00000016  00000-0  00000+0 0  3349
2 27509   2.0073  62.4664 0001036  40.6001 118.7118  1.00270586 39059
KALPANA-1 (METSAT 1)    
1 27525U 02043A   13108.96651449 -.00000084  00000-0  00000+0 0  6761
2 27525   3.5260  67.3554 0003359 230.6218 331.1872  1.00271833 38855
INSAT-3A                
1 27714U 03013A   13109.81737801 -.00000265  00000-0  10000-3 0  6374
2 27714   0.0710  72.7013 0003205 270.0988 253.0147  1.00271517 36763
FENGYUN 2C              
1 28451U 04042A   13109.92274806 -.00000362  00000-0  10000-3 0  6614
2 28451   4.6205  62.9962 0001614  88.7756 151.9226  1.00281031 31114
HIMAWARI-6 (MTSAT-1R)   
1 28622U 05006A   13109.53007600 -.00000288  00000-0  10000-3 0  8651
2 28622   0.0256 308.7831 0000542  57.1274 172.7423  1.00271476 29816
NOAA 18                 
1 28654U 05018A   13109.48410836  .00000197  00000-0  13310-3 0  5801
2 28654  99.0944  76.8746 0014501  18.3766 128.8511 14.11798541407774
METEOSAT-9 (MSG-2)      
1 28912U 05049B   13109.22488605  .00000055  00000-0  00000+0 0  5062
2 28912   0.4522  27.3677 0001483 341.1066 289.3330  1.00267179 26904
MTSAT-2                 
1 28937U 06004A   13109.53020559 -.00000250  00000-0  00000+0 0  3870
2 28937   0.0206  68.6753 0004252 326.7080 148.3190  1.00271498 26290
FORMOSAT-3 FM6          
1 29047U 06011A   13109.94215535  .00000144  00000-0  74280-4 0   779
2 29047  71.9824  45.2141 0053208 250.9144 140.1919 14.27640424367875
FORMOSAT-3 FM1          
1 29048U 06011B   13107.79113771  .00000249  00000-0  11655-3 0  1560
2 29048  71.9697 323.4266 0045573 208.2592 227.8845 14.27638979370048
FORMOSAT-3 FM5          
1 29049U 06011C   13109.49163374  .00000222  00000-0  10619-3 0   956
2 29049  72.0192 116.8567 0037499 255.1951 249.7462 14.27652508366066
FORMOSAT-3 FM3          
1 29050U 06011D   13109.34910850  .00000474  00000-0  11704-3 0  4275
2 29050  72.0167 165.4434 0052121  30.7152 329.7031 14.55775781375131
FORMOSAT-3 FM4          
1 29051U 06011E   13109.78415201  .00000251  00000-0  11530-3 0  1495
2 29051  72.0090  22.9035 0067883 126.6460 269.4764 14.27659859368691
FORMOSAT-3 FM2          
1 29052U 06011F   13108.05363376  .00000265  00000-0  12283-3 0  1693
2 29052  72.0345  92.8916 0042463 225.1019 168.5781 14.27713558366751
GOES 13                 
1 29155U 06018A   13109.32555770 -.00000259  00000-0  10000-3 0  5127
2 29155   0.3189 262.3388 0003290 169.6492 178.1392  1.00274725 25318
METOP-A                 
1 29499U 06044A   13109.80805719  .00000044  00000-0  40145-4 0   211
2 29499  98.7188 170.2154 0000529 198.9675 161.1482 14.21484177337282
FENGYUN 2D              
1 29640U 06053A   13109.96942603 -.00000204  00000-0  10000-3 0  6581
2 29640   1.4808  72.3814 0001597   7.7742 203.4679  1.00278380 23362
FENGYUN 3A              
1 32958U 08026A   13110.10173936  .00000059  00000-0  48232-4 0  8557
2 32958  98.6102 176.8688 0009913   3.3748 356.7497 14.19339571253820
NOAA 19                 
1 33591U 09005A   13109.54449009  .00000178  00000-0  12245-3 0  7669
2 33591  98.9003  52.0838 0013241 232.7537 191.2944 14.11485866216225
GOES 14                 
1 35491U 09033A   13109.45013635 -.00000093  00000-0  00000+0 0  9204
2 35491   0.1172  83.6206 0002622 117.6746  62.9422  1.00271953 13988
METEOR-M 1              
1 35865U 09049A   13110.10110184  .00000002  00000-0  20393-4 0  3819
2 35865  98.6081 163.9341 0001571 242.1966 117.9051 14.21883631186211
GOES 15                 
1 36411U 10008A   13109.32389589  .00000081  00000-0  10000-3 0  5332
2 36411   0.0727  85.0756 0001079 312.8770 151.1720  1.00263936 11480
COMS 1                  
1 36744U 10032A   13108.84322079 -.00000352  00000-0  10000-3 0  5573
2 36744   0.0072 150.1262 0000670 231.8051 256.9390  1.00271745 10445
FENGYUN 3B              
1 37214U 10059A   13110.19604109  .00000096  00000-0  66639-4 0  7120
2 37214  98.7971  55.3850 0000324 153.0636 207.0560 14.19328312127339
ELEKTRO-L 1 (GOMS 2)    
1 37344U 11001A   13109.09476531 -.00000106  00000-0  00000+0 0  5929
2 37344   0.0424 245.9658 0001364 215.7754 215.9054  1.00271539  8278
SUOMI NPP               
1 37849U 11061A   13107.12221817  .00000026  00000-0  33094-4 0  4666
2 37849  98.7490  46.3659 0000851 142.7925 333.5435 14.19538115 76150
FENGYUN 2F              
1 38049U 12002A   13109.95923858 -.00000365  00000-0  10000-3 0  3399
2 38049   1.4020 278.0286 0003508 258.3839 128.7988  1.00283852  4703
METOP-B                 
1 38771U 12049A   13107.80487665  .00000051  00000-0  43150-4 0  1847
2 38771  98.7081 168.9782 0001866  26.5418 333.5855 14.21497101 30127
